[{"OBJECT_NAME":"LEMUR-2-MJR092620","OBJECT_ID":"2023-174CN","EPOCH":"2026-04-26T19:53:46.081248","MEAN_MOTION":15.43313292,"ECCENTRICITY":0.00051154,"INCLINATION":97.3962,"RA_OF_ASC_NODE":205.9884,"ARG_OF_PERICENTER":309.4766,"MEAN_ANOMALY":50.6029,"EPHEMERIS_TYPE":0,"CLASSIFICATION_TYPE":"U","NORAD_CAT_ID":58340,"ELEMENT_SET_NO":999,"REV_AT_EPOCH":13772,"BSTAR":0.00026824294,"MEAN_MOTION_DOT":0.00011866,"MEAN_MOTION_DDOT":0},{"OBJECT_NAME":"LEMUR-2-NIMBUS2000","OBJECT_ID":"2024-022A","EPOCH":"2026-04-26T20:21:53.426592","MEAN_MOTION":15.38379905,"ECCENTRICITY":0.00076182,"INCLINATION":97.4174,"RA_OF_ASC_NODE":326.2551,"ARG_OF_PERICENTER":307.8414,"MEAN_ANOMALY":52.2141,"EPHEMERIS_TYPE":0,"CLASSIFICATION_TYPE":"U","NORAD_CAT_ID":58899,"ELEMENT_SET_NO":999,"REV_AT_EPOCH":12437,"BSTAR":0.0004547211,"MEAN_MOTION_DOT":0.00017158,"MEAN_MOTION_DDOT":0},{"OBJECT_NAME":"LEMUR-2-VALHALLA","OBJECT_ID":"2024-022B","EPOCH":"2026-04-26T13:48:15.319584","MEAN_MOTION":15.38120098,"ECCENTRICITY":0.0008079,"INCLINATION":97.4172,"RA_OF_ASC_NODE":325.9929,"ARG_OF_PERICENTER":303.1962,"MEAN_ANOMALY":56.8507,"EPHEMERIS_TYPE":0,"CLASSIFICATION_TYPE":"U","NORAD_CAT_ID":58900,"ELEMENT_SET_NO":999,"REV_AT_EPOCH":12433,"BSTAR":0.00050543,"MEAN_MOTION_DOT":0.00018927,"MEAN_MOTION_DDOT":0},{"OBJECT_NAME":"LEMUR-2-OBA-NI-JESU","OBJECT_ID":"2024-022D","EPOCH":"2026-04-26T20:55:49.129824","MEAN_MOTION":15.78116518,"ECCENTRICITY":0.00036127,"INCLINATION":97.3948,"RA_OF_ASC_NODE":337.8138,"ARG_OF_PERICENTER":208.4051,"MEAN_ANOMALY":151.7019,"EPHEMERIS_TYPE":0,"CLASSIFICATION_TYPE":"U","NORAD_CAT_ID":58902,"ELEMENT_SET_NO":999,"REV_AT_EPOCH":12516,"BSTAR":0.0010577035,"MEAN_MOTION_DOT":0.00183151,"MEAN_MOTION_DDOT":0},{"OBJECT_NAME":"LEMUR-2-CAEL","OBJECT_ID":"2024-022E","EPOCH":"2026-04-26T13:28:39.386208","MEAN_MOTION":15.39312327,"ECCENTRICITY":0.00063,"INCLINATION":97.4157,"RA_OF_ASC_NODE":326.8288,"ARG_OF_PERICENTER":283.1547,"MEAN_ANOMALY":76.8996,"EPHEMERIS_TYPE":0,"CLASSIFICATION_TYPE":"U","NORAD_CAT_ID":58903,"ELEMENT_SET_NO":999,"REV_AT_EPOCH":12439,"BSTAR":0.00049206,"MEAN_MOTION_DOT":0.00019147,"MEAN_MOTION_DDOT":0},{"OBJECT_NAME":"LEMUR-2-JOHNNYTRUONG","OBJECT_ID":"2024-043BA","EPOCH":"2026-04-26T09:36:51.332832","MEAN_MOTION":15.56720267,"ECCENTRICITY":0.00037746,"INCLINATION":97.5329,"RA_OF_ASC_NODE":265.0669,"ARG_OF_PERICENTER":19.9056,"MEAN_ANOMALY":340.2345,"EPHEMERIS_TYPE":0,"CLASSIFICATION_TYPE":"U","NORAD_CAT_ID":59146,"ELEMENT_SET_NO":999,"REV_AT_EPOCH":11997,"BSTAR":0.00061055989,"MEAN_MOTION_DOT":0.00043681,"MEAN_MOTION_DDOT":0},{"OBJECT_NAME":"LEMUR-2-TOMATOKECHUP","OBJECT_ID":"2024-149D","EPOCH":"2026-04-26T22:48:12.197952","MEAN_MOTION":15.34957437,"ECCENTRICITY":0.00030656,"INCLINATION":97.38,"RA_OF_ASC_NODE":198.9095,"ARG_OF_PERICENTER":81.6628,"MEAN_ANOMALY":278.4962,"EPHEMERIS_TYPE":0,"CLASSIFICATION_TYPE":"U","NORAD_CAT_ID":60471,"ELEMENT_SET_NO":999,"REV_AT_EPOCH":9430,"BSTAR":0.00035211678,"MEAN_MOTION_DOT":0.00011866,"MEAN_MOTION_DDOT":0},{"OBJECT_NAME":"LEMUR-2-STELLA","OBJECT_ID":"2024-149BT","EPOCH":"2026-04-26T18:23:41.222976","MEAN_MOTION":15.10667788,"ECCENTRICITY":0.00015383,"INCLINATION":97.6737,"RA_OF_ASC_NODE":199.0449,"ARG_OF_PERICENTER":132.1672,"MEAN_ANOMALY":227.9688,"EPHEMERIS_TYPE":0,"CLASSIFICATION_TYPE":"U","NORAD_CAT_ID":60533,"ELEMENT_SET_NO":999,"REV_AT_EPOCH":9273,"BSTAR":0.00091030175,"MEAN_MOTION_DOT":0.0001502,"MEAN_MOTION_DDOT":0},{"OBJECT_NAME":"LEMUR-2-MARHISYAM","OBJECT_ID":"2024-149BW","EPOCH":"2026-04-26T19:05:09.669120","MEAN_MOTION":15.10167858,"ECCENTRICITY":5.182e-5,"INCLINATION":97.6872,"RA_OF_ASC_NODE":199.4682,"ARG_OF_PERICENTER":306.4327,"MEAN_ANOMALY":53.6854,"EPHEMERIS_TYPE":0,"CLASSIFICATION_TYPE":"U","NORAD_CAT_ID":60536,"ELEMENT_SET_NO":999,"REV_AT_EPOCH":9272,"BSTAR":0.00073499635,"MEAN_MOTION_DOT":0.00011943,"MEAN_MOTION_DDOT":0},{"OBJECT_NAME":"LEMUR-2-AHMED-ASRAR","OBJECT_ID":"2024-149DN","EPOCH":"2026-04-26T19:27:31.289184","MEAN_MOTION":15.11526896,"ECCENTRICITY":0.00031154,"INCLINATION":97.6996,"RA_OF_ASC_NODE":201.3842,"ARG_OF_PERICENTER":147.9666,"MEAN_ANOMALY":212.1754,"EPHEMERIS_TYPE":0,"CLASSIFICATION_TYPE":"U","NORAD_CAT_ID":60576,"ELEMENT_SET_NO":999,"REV_AT_EPOCH":9280,"BSTAR":0.00073896434,"MEAN_MOTION_DOT":0.0001247,"MEAN_MOTION_DDOT":0},{"OBJECT_NAME":"LEMUR-2-LLOYD","OBJECT_ID":"2024-149DP","EPOCH":"2026-04-26T21:46:16.884768","MEAN_MOTION":15.08229399,"ECCENTRICITY":0.00027495,"INCLINATION":97.6746,"RA_OF_ASC_NODE":198.0503,"ARG_OF_PERICENTER":338.9369,"MEAN_ANOMALY":21.1745,"EPHEMERIS_TYPE":0,"CLASSIFICATION_TYPE":"U","NORAD_CAT_ID":60577,"ELEMENT_SET_NO":999,"REV_AT_EPOCH":9266,"BSTAR":0.00077094799,"MEAN_MOTION_DOT":0.00011883,"MEAN_MOTION_DDOT":0},{"OBJECT_NAME":"LEMUR-2-SQUIRRELCOMM","OBJECT_ID":"2024-149DQ","EPOCH":"2026-04-26T17:23:19.231296","MEAN_MOTION":15.06534285,"ECCENTRICITY":0.00049501,"INCLINATION":97.6704,"RA_OF_ASC_NODE":197.8231,"ARG_OF_PERICENTER":212.6552,"MEAN_ANOMALY":147.4369,"EPHEMERIS_TYPE":0,"CLASSIFICATION_TYPE":"U","NORAD_CAT_ID":60578,"ELEMENT_SET_NO":999,"REV_AT_EPOCH":9265,"BSTAR":0.00049435294,"MEAN_MOTION_DOT":7.251e-5,"MEAN_MOTION_DDOT":0},{"OBJECT_NAME":"LEMUR-2-SIERRINI","OBJECT_ID":"2024-149DR","EPOCH":"2026-04-26T19:23:24.320832","MEAN_MOTION":15.09851,"ECCENTRICITY":0.0004619,"INCLINATION":97.6839,"RA_OF_ASC_NODE":199.2203,"ARG_OF_PERICENTER":12.6957,"MEAN_ANOMALY":347.4387,"EPHEMERIS_TYPE":0,"CLASSIFICATION_TYPE":"U","NORAD_CAT_ID":60579,"ELEMENT_SET_NO":999,"REV_AT_EPOCH":9270,"BSTAR":0.00073192619,"MEAN_MOTION_DOT":0.00011792,"MEAN_MOTION_DDOT":0},{"OBJECT_NAME":"LEMUR-2-WILSON","OBJECT_ID":"2025-009CP","EPOCH":"2026-04-26T21:27:48.213792","MEAN_MOTION":14.94934155,"ECCENTRICITY":0.00031574,"INCLINATION":97.7027,"RA_OF_ASC_NODE":196.2669,"ARG_OF_PERICENTER":178.7719,"MEAN_ANOMALY":181.351,"EPHEMERIS_TYPE":0,"CLASSIFICATION_TYPE":"U","NORAD_CAT_ID":62694,"ELEMENT_SET_NO":999,"REV_AT_EPOCH":6969,"BSTAR":0.00028055181,"MEAN_MOTION_DOT":3.006e-5,"MEAN_MOTION_DDOT":0},{"OBJECT_NAME":"LEMUR-2-STAR-FOX","OBJECT_ID":"2025-009CR","EPOCH":"2026-04-26T11:10:52.476960","MEAN_MOTION":15.01738099,"ECCENTRICITY":0.00012928,"INCLINATION":97.6923,"RA_OF_ASC_NODE":198.5042,"ARG_OF_PERICENTER":89.145,"MEAN_ANOMALY":270.9923,"EPHEMERIS_TYPE":0,"CLASSIFICATION_TYPE":"U","NORAD_CAT_ID":62696,"ELEMENT_SET_NO":999,"REV_AT_EPOCH":6979,"BSTAR":0.00066381705,"MEAN_MOTION_DOT":8.585e-5,"MEAN_MOTION_DDOT":0},{"OBJECT_NAME":"LEMUR-2-ARIANNA","OBJECT_ID":"2025-009CU","EPOCH":"2026-04-26T19:05:58.367616","MEAN_MOTION":15.01651157,"ECCENTRICITY":9.813e-5,"INCLINATION":97.6845,"RA_OF_ASC_NODE":198.6492,"ARG_OF_PERICENTER":51.9648,"MEAN_ANOMALY":308.1665,"EPHEMERIS_TYPE":0,"CLASSIFICATION_TYPE":"U","NORAD_CAT_ID":62699,"ELEMENT_SET_NO":999,"REV_AT_EPOCH":6984,"BSTAR":0.00078436706,"MEAN_MOTION_DOT":0.00010133,"MEAN_MOTION_DDOT":0}]
