LEMUR-2-MJR092620       
1 58340U 23174CN  26116.82900557  .00011866  00000+0  26824-3 0  9995
2 58340  97.3962 205.9884 0005115 309.4766  50.6029 15.43313292137726
LEMUR-2-NIMBUS2000      
1 58899U 24022A   26116.84853503  .00017158  00000+0  45472-3 0  9997
2 58899  97.4174 326.2551 0007618 307.8414  52.2141 15.38379905124378
LEMUR-2-VALHALLA        
1 58900U 24022B   26116.57517731  .00018927  00000+0  50543-3 0  9990
2 58900  97.4172 325.9929 0008079 303.1962  56.8507 15.38120098124332
LEMUR-2-OBA-NI-JESU     
1 58902U 24022D   26116.87209641  .00183151  00000+0  10577-2 0  9997
2 58902  97.3948 337.8138 0003612 208.4051 151.7019 15.78116518125163
LEMUR-2-CAEL            
1 58903U 24022E   26116.56156697  .00019147  00000+0  49206-3 0  9991
2 58903  97.4157 326.8288 0006300 283.1547  76.8996 15.39312327124396
LEMUR-2-JOHNNYTRUONG    
1 59146U 24043BA  26116.40059413  .00043681  00000+0  61056-3 0  9992
2 59146  97.5329 265.0669 0003774  19.9056 340.2345 15.56720267119976
LEMUR-2-TOMATOKECHUP    
1 60471U 24149D   26116.95014118  .00011866  00000+0  35212-3 0  9990
2 60471  97.3800 198.9095 0003065  81.6628 278.4962 15.34957437 94305
LEMUR-2-STELLA          
1 60533U 24149BT  26116.76644934  .00015020  00000+0  91030-3 0  9999
2 60533  97.6737 199.0449 0001538 132.1672 227.9688 15.10667788 92735
LEMUR-2-MARHISYAM       
1 60536U 24149BW  26116.79525080  .00011943  00000+0  73500-3 0  9997
2 60536  97.6872 199.4682 0000518 306.4327  53.6854 15.10167858 92722
LEMUR-2-AHMED-ASRAR     
1 60576U 24149DN  26116.81077881  .00012470  00000+0  73896-3 0  9999
2 60576  97.6996 201.3842 0003115 147.9666 212.1754 15.11526896 92806
LEMUR-2-LLOYD           
1 60577U 24149DP  26116.90713987  .00011883  00000+0  77095-3 0  9996
2 60577  97.6746 198.0503 0002749 338.9369  21.1745 15.08229399 92666
LEMUR-2-SQUIRRELCOMM    
1 60578U 24149DQ  26116.72452814  .00007251  00000+0  49435-3 0  9997
2 60578  97.6704 197.8231 0004950 212.6552 147.4369 15.06534285 92658
LEMUR-2-SIERRINI        
1 60579U 24149DR  26116.80792038  .00011792  00000+0  73193-3 0  9995
2 60579  97.6839 199.2203 0004619  12.6957 347.4387 15.09851000 92700
LEMUR-2-WILSON          
1 62694U 25009CP  26116.89430803  .00003006  00000+0  28055-3 0  9995
2 62694  97.7027 196.2669 0003157 178.7719 181.3510 14.94934155 69690
LEMUR-2-STAR-FOX        
1 62696U 25009CR  26116.46588515  .00008585  00000+0  66382-3 0  9996
2 62696  97.6923 198.5042 0001292  89.1450 270.9923 15.01738099 69793
LEMUR-2-ARIANNA         
1 62699U 25009CU  26116.79581444  .00010133  00000+0  78437-3 0  9995
2 62699  97.6845 198.6492 0000981  51.9648 308.1665 15.01651157 69841
